SAOCOM 1A               
1 43641U 18076A   26087.59595433  .00000097  00000+0  18734-4 0  9998
2 43641  97.8907 275.5017 0001430  85.9232 274.2145 14.82158395404160
H-2A R/B                
1 43682U 18084L   26087.55442078  .00023113  00000+0  53602-3 0  9990
2 43682  98.8711 308.9843 0023781 319.5540  40.3934 15.42134956408681
SAOCOM 1B               
1 46265U 20059A   26087.55967963  .00000706  00000+0  95254-4 0  9993
2 46265  97.8908 274.5639 0001539  87.6326 272.5063 14.82157134301546
CSS (TIANHE)            
1 48274U 21035A   26087.39534363  .00017812  00000+0  20488-3 0  9998
2 48274  41.4669  94.2614 0004058  45.3760 314.7410 15.61580461280530
COSMOS 2550             
1 48865U 21056A   26087.49272868 -.00000186  00000+0  18968-6 0  9997
2 48865  67.1421 344.0047 0008440 269.5686  90.4502 15.33828274266348
CZ-2C R/B               
1 52794U 22058K   26087.59877230  .00044205  00000+0  61128-3 0  9993
2 52794  50.1873 220.9188 0041500 281.9247  77.7073 15.55613526213079
CZ-2C R/B               
1 54039U 22132E   26087.58182171  .00048831  00000+0  52079-3 0  9996
2 54039  97.2960  91.4974 0017700  29.7061 330.5199 15.63619581193323
GSLV R/B                
1 54149U 22138AN  26087.43960105  .00002448  00000+0  20975-3 0  9993
2 54149  87.3863 160.0857 0024047  84.9694 275.4282 14.96891410186732
XRISM                   
1 57800U 23137A   26087.59191216  .00006351  00000+0  35792-3 0  9996
2 57800  31.0016 161.3818 0007952 229.4111 130.5836 15.11713690140650
ACS3                    
1 59588U 24077B   26087.57313832  .00022962  00000+0  18062-1 0  9998
2 59588  97.1966  24.4398 0072461  33.5084 327.0633 13.90460123 96826
SZ-21 MODULE            
1 66515U 25246C   26087.27448309  .00043062  00000+0  34891-3 0  9994
2 66515  41.4743  88.8326 0001568 210.3682 149.7069 15.69967006 20990
